CZ-4B R/B               
1 28059U 03049C   17345.75705664  .00000020  00000-0  16715-4 0  9996
2 28059  98.5390 235.0036 0051212  66.0377 335.6990 14.52510655749468
